H-2A R/B                
1 28932U 06002B   26192.37449581  .00005406  00000+0  25811-3 0  9997
2 28932  98.2582 350.4005 0050574 178.9682 181.1663 15.18407590113190
RESURS-DK 1             
1 29228U 06021A   26192.62498360  .00001011  00000+0  62717-4 0  9999
2 29228  69.9312 276.2899 0006915 275.2250  84.8127 15.13311404106271
CZ-4B R/B               
1 29507U 06046C   26192.71054156  .00002355  00000+0  11792-3 0  9995
2 29507  97.5444 237.2421 0032233 194.3231 165.7093 15.17964077 78851
CZ-2C R/B               
1 31114U 07010B   26192.78730952  .00000014  00000+0  25423-4 0  9993
2 31114  98.4116 299.9374 0057833 293.8801  65.6324 14.20281258997331
COSMO-SKYMED 1          
1 31598U 07023A   26192.79694105  .00001298  00000+0  11738-3 0  9991
2 31598  97.8843  24.8609 0001151 101.0454 259.0897 14.97209471 33470
COSMOS 2428             
1 31792U 07029A   26192.63907471  .00000175  00000+0  11955-3 0  9993
2 31792  70.9382 303.1376 0007178  88.1796 272.0147 14.12932455981601
SL-16 R/B               
1 31793U 07029B   26192.65116434 -.00000003  00000+0  23494-4 0  9990
2 31793  70.9748 271.8031 0002041 256.6911 209.7663 14.14850744982908
KORONAS-FOTON           
1 33504U 09003A   26192.28615038  .00007945  00000+0  16035-3 0  9992
2 33504  82.4297 147.1115 0012396  74.3126 285.9489 15.46234635964826
CZ-2C R/B               
1 37731U 11030B   26192.76102694  .00000566  00000+0  77499-4 0  9997
2 37731  97.8668 147.7064 0050993 307.6173 115.1153 14.81528255808463
H-2A R/B                
1 38341U 12025E   26192.50684701  .00000903  00000+0  85785-4 0  9998
2 38341  98.4849 169.6614 0042325 267.6471  91.9901 14.95831982766722
SHIJIAN-16 (SJ-16)      
1 39358U 13057A   26192.77096929  .00001255  00000+0  12427-3 0  9994
2 39358  74.9735 310.1200 0015949 173.2082 186.9326 14.92667078690014
SL-4 R/B                
1 39679U 14021B   26192.10452958  .00005764  00000+0  12262-3 0  9993
2 39679  51.6060  93.5584 0089882 193.4185 166.4409 15.42429106675309
ALOS-2                  
1 39766U 14029A   26192.08119866  .00000414  00000+0  62362-4 0  9997
2 39766  97.9222 288.9034 0001625  93.1254 267.0143 14.79474805655116
YAOGAN-29               
1 41038U 15069A   26192.80349646 -.00000349  00000+0 -36267-4 0  9992
2 41038  98.0028 221.4738 0001054  17.1612 342.9637 14.83103352574279
ASTRO-H (HITOMI)        
1 41337U 16012A   26192.41706620  .00001617  00000+0  89720-4 0  9998
2 41337  30.9994 277.6935 0009573 137.3545 222.7837 15.10623257570954
HXMT (HUIYAN)           
1 42758U 17034A   26192.73410019  .00002925  00000+0  14826-3 0  9997
2 42758  43.0150  46.3381 0032611 299.6460  60.1143 15.18669914501398
SAOCOM 1A               
1 43641U 18076A   26192.77737735 -.00000036  00000+0  20568-5 0  9991
2 43641  97.8892  19.1692 0001475  84.0244 276.1137 14.82145511419744
H-2A R/B                
1 43682U 18084L   26192.66433598  .00012507  00000+0  25576-3 0  9990
2 43682  98.8545  76.9186 0020681 313.6402  46.3127 15.46108710424902
SAOCOM 1B               
1 46265U 20059A   26192.80860611  .00000542  00000+0  74592-4 0  9990
2 46265  97.8894  18.2960 0001561  81.9147 278.2244 14.82157422317139
CSS (TIANHE)            
1 48274U 21035A   26192.62540877  .00001368  00000+0  21992-4 0  9999
2 48274  41.4689 173.4699 0002534 289.9919  70.0645 15.58019839296984
COSMOS 2550             
1 48865U 21056A   26192.80321926  .00000606  00000+0  24271-4 0  9997
2 48865  67.1434  25.4439 0008448 270.6833  89.3354 15.33804648282497
CZ-2C R/B               
1 52794U 22058K   26191.96504953  .00028709  00000+0  29996-3 0  9997
2 52794  50.1860  39.6356 0030552   5.0347 355.0929 15.63611371229364
CZ-2C R/B               
1 54039U 22132E   26192.58017608  .00043213  00000+0  29533-3 0  9993
2 54039  97.2899 200.7470 0010135 357.5073   2.6140 15.74627248209782
GSLV R/B                
1 54149U 22138AN  26192.77856991  .00001464  00000+0  12285-3 0  9996
2 54149  87.3818 124.7266 0023848  63.4270 296.9402 14.97372938202497
XRISM                   
1 57800U 23137A   26192.40914272  .00002256  00000+0  12034-3 0  9992
2 57800  31.0007 202.6776 0007838 208.6647 151.3561 15.12653502156534
ACS3                    
1 59588U 24077B   26192.38194203  .00005886  00000+0  41135-2 0  9997
2 59588  97.1715 105.8020 0119151  41.5448 319.4699 13.95362059111419
SPACEMOBILE-003         
1 61045U 24163A   26191.41571764 -.00000084  00000+0  10927-4 0  9991
2 61045  52.9615 202.6161 0005791 185.1427 174.9508 15.20785714101303
SPACEMOBILE-005         
1 61046U 24163B   26192.45071654  .00003056  00000+0  15155-3 0  9998
2 61046  52.9788 197.8076 0008894 184.8633 175.2276 15.20765383101459
SPACEMOBILE-001         
1 61047U 24163C   26191.06904487  .00000518  00000+0  37895-4 0  9990
2 61047  52.9749 203.8741 0007553 178.7608 181.3406 15.20815495101249
SPACEMOBILE-002         
1 61048U 24163D   26192.03876027  .00008243  00000+0  38281-3 0  9999
2 61048  52.9623 199.4399 0006620 180.9990 179.0992 15.20841812101395
